CORVUS BC4              
1 43767U 18099K   22249.80207087  .00001824  00000+0  16754-3 0  9995
2 43767  97.6098 312.8166 0011365   3.4401 356.6896 14.95980552205135
MOVE-II                 
1 43780U 18099Y   22250.44391323  .00003487  00000+0  29799-3 0  9999
2 43780  97.6178 315.9889 0012308 359.4430   0.6777 14.98236242205338
SPACEBEE-7              
1 43816U 18099BL  22250.43825971  .00002611  00000+0  22541-3 0  9995
2 43816  97.6200 316.7126 0012383 343.2969  16.7844 14.98052079204929
SPACEBEE-5              
1 43817U 18099BM  22250.42273335  .00009139  00000+0  69633-3 0  9991
2 43817  97.6256 320.1386 0005328 341.5601  18.5430 15.02268306205079
SPACEBEE-6              
1 43818U 18099BN  22250.13375232  .00005222  00000+0  43230-3 0  9993
2 43818  97.6241 317.4595 0010628 347.8314  12.2651 14.99258936205073
SHIELDS 1               
1 43850U 18104B   22250.45992122  .00003715  00000+0  15128-3 0  9994
2 43850  85.0324 357.7830 0012602 331.5376  28.5177 15.24055782206991
STF-1                   
1 43852U 18104D   22250.29924591  .00011434  00000+0  41696-3 0  9999
2 43852  85.0344 357.9432 0011436 343.9077  16.1803 15.27965540207034
ZACUBE-2                
1 43907U 18111AH  22250.49349628  .00008525  00000+0  30534-3 0  9998
2 43907  97.1786 133.8878 0020643 143.5076 340.4582 15.28781863205824
LUME 1                  
1 43908U 18111AJ  22249.61974443  .00010299  00000+0  33763-3 0  9998
2 43908  97.1795 134.8958 0019243 138.9816 221.2877 15.31632491205817
AOBA VELOX-IV           
1 43940U 19003J   22250.32840902  .00026443  00000+0  63763-3 0  9998
2 43940  97.1209 283.9432 0015855 200.0557 160.0069 15.41071367202724
MOVE-IIB                
1 44398U 19038N   22250.48527972  .00014233  00000+0  65798-3 0  9994
2 44398  97.6323 220.7014 0019369 198.1969 161.8585 15.20113739175499
SONATE                  
1 44400U 19038Q   22249.89797109  .00004850  00000+0  26027-3 0  9998
2 44400  97.6443 218.8327 0022269 208.8477 151.1526 15.15219560175262
LUCKY-7                 
1 44406U 19038W   22249.71199917  .00005377  00000+0  27989-3 0  9991
2 44406  97.6459 219.2494 0021437 205.6346 154.3826 15.16264858175271
BEESAT 9                
1 44412U 19038AC  22249.62942792  .00007406  00000+0  36725-3 0  9998
2 44412  97.6423 219.5977 0018754 208.0897 151.9326 15.17879461175006
JAISAT-1                
1 44419U 19038F   22249.72164274  .00007997  00000+0  39109-3 0  9991
2 44419  97.6428 220.5911 0017862 204.3565 155.6826 15.18354645175388
DUCHIFAT-3              
1 44854U 19089C   22250.25161044  .00004863  00000+0  37439-3 0  9995
2 44854  36.9666 335.2498 0007689 172.3197 217.4047 15.01513803150230
EYESAT-NANO             
1 44877U 19092E   22250.49917162  .00009606  00000+0  40009-3 0  9997
2 44877  97.4648  74.3790 0012423  71.5578 288.7008 15.23869423150850
ORBITAL FACTORY 2 (OF-2)
1 45113U 19071C   22249.75124082  .00033286  00000+0  60692-3 0  9997
2 45113  51.6383  18.2700 0008151 109.9039 250.2828 15.49104814145965
M2 PATHFINDER           
1 45727U 20037E   22250.43467665  .00001767  00000+0  17870-3 0  9995
2 45727  97.7391  64.4327 0013448 121.5133 238.7442 14.92196957119054
NETSAT-4                
1 46504U 20068U   22249.83121194  .00002922  00000+0  21688-3 0  9995
2 46504  97.7271 189.4971 0013633  55.3018 304.9490 15.03778156106279
NETSAT-3                
1 46505U 20068V   22249.78244694  .00003997  00000+0  29546-3 0  9995
2 46505  97.7257 189.3600 0012185  58.2767 301.9652 15.03725962106270
NETSAT-1                
1 46506U 20068W   22249.80186436  .00002137  00000+0  16048-3 0  9996
2 46506  97.7274 189.3012 0011326  68.2118 292.0314 15.03655308106275
NETSAT-2                
1 46507U 20068X   22249.81242395  .00002400  00000+0  17972-3 0  9995
2 46507  97.7280 189.3035 0010801  75.7795 284.4632 15.03647021106225
SAI-1 NANOCONNECT-2     
1 47701U 21015C   22249.76840932  .00012487  00000+0  44835-3 0  9994
2 47701  97.4188 326.3646 0011621 160.1319 200.0376 15.28749340 84632
BEESAT-6                
1 47957U 21022AB  22250.56809237  .00005920  00000+0  37242-3 0  9996
2 47957  97.5165 148.5798 0018601 222.7154 256.5798 15.09444811 80184
SMOG-1                  
1 47964U 21022AJ  22250.25489872  .00006669  00000+0  40300-3 0  9999
2 47964  97.5210 149.4953 0016953 209.9256 150.1006 15.10888137 79234
MMSATS-1                
1 47976U 98067SJ  22250.37078455  .00029869  00000+0  33408-3 0  9997
2 47976  51.6399 272.5213 0002265   8.6274 118.2765 15.62467130 83053
BCCSAT-1                
1 48041U 21022AK  22249.95640212  .00005637  00000+0  35047-3 0  9994
2 48041  97.5207 148.7207 0013817 208.6219 151.4254 15.09958120 79138
BEESAT-5                
1 48083U 21022AM  22250.55219045  .00007947  00000+0  49551-3 0  9995
2 48083  97.5182 148.5757 0018730 222.4285 258.7235 15.09655455 79315
BEESAT-7                
1 48084U 21022AN  22249.68197170  .00009039  00000+0  56504-3 0  9992
2 48084  97.5194 147.7239 0018681 224.6969 165.2225 15.09521807 78776
BEESAT-8                
1 48085U 21022AP  22250.56569538  .00005686  00000+0  35825-3 0  9990
2 48085  97.5163 148.5800 0018916 221.9260 258.7807 15.09395224 79464
RAMSAT                  
1 48850U 98067SL  22250.46475115  .00166593  00000+0  65293-3 0  9996
2 48850  51.6331 254.5370 0006167  42.2355 317.9123 15.85929285 70279
BD-28                   
1 48867U 98067SN  22250.27127800  .00785900  33127-3  98975-3 0  9990
2 48867  51.6169 247.7370 0005835  52.5325 307.6218 16.06932359 69091
BINAR-1                 
1 49272U 98067SR  22250.47209898  .00266661  37312-4  85245-3 0  9996
2 49272  51.6253 257.4989 0005349  32.9567 327.1772 15.90570717 52621
HSU-SAT1                
1 53462U 98067UB  22250.49031625  .00028263  00000+0  46290-3 0  9995
2 53462  51.6404 288.5645 0005446 235.0980 124.9498 15.52241436  4066
FUTABA                  
1 53463U 98067UC  22250.48777830  .00033074  00000+0  53486-3 0  9991
2 53463  51.6402 288.5473 0005268 237.2122 122.8361 15.52513729  4061
TUMNANOSAT              
1 53464U 98067UD  22250.42086881  .00038366  00000+0  61313-3 0  9992
2 53464  51.6401 288.8504 0005240 237.7610 122.2873 15.52770762  4059
